#dP2021  3 18  0  0  0.00000000      96 __u+U ITR00 EXT  IAC
## 2149 345600.00000000   900.00000000 59291 0.0000000000000
+  116   C06C07C08C09C10C11C12C13C14C16C19C20C21C22C23C24C25
+        C26C27C28C29C30C32C33C34C35C36C37C38C39C40C41C42C43
+        C44C45C46E01E02E03E04E05E07E08E09E11E12E13E14E15E18
+        E19E21E24E25E26E27E30E31E33G01G02G03G04G05G06G07G08
+        G09G10G11G12G13G14G15G16G17G18G19G20G21G22G23G24G25
+        G26G27G28G29G30G31G32J01J02J03R01R02R03R04R05R07R08
+        R09R11R12R13R14R15R16R17R18R19R20R21R22R24  0  0  0
++        14  9 11 10 11  8  9  9  9 12 10  9 10  9  9  9  9
++         8  9 10  8  8  9 10 11 10 10  9 12 11  9  8  9 11
++        10  9  9  7  8  8  8  8  9  8  8  9  9  8  8  8  8
++         8  7  9  7  8  7  8  8  9  8  8  7  7  9  7  8  8
++         8  9  9  7  7  8  7  8  8  9  7  7  8  8  7  9  8
++         7  8  8  6  8  9  8 11 11 11  9  9  9  9  8  9  8
++         8  8  8  9  9  9  9  8  9  9  9 10  9  8  0  0  0
%c M  cc GPS ccc cccc cccc cccc cccc ccccc ccccc ccccc ccccc
%c cc cc ccc ccc cccc cccc cccc cccc ccccc ccccc ccccc ccccc
%f  0.0000000  0.000000000  0.00000000000  0.000000000000000
%f  0.0000000  0.000000000  0.00000000000  0.000000000000000
%i    0    0    0    0      0      0      0      0         0
%i    0    0    0    0      0      0      0      0         0
/* IAC                                ULTRA-RAPID PREDICTION
/* S/V CLOCKS ARE ALIGNED TO GNSS TIME                      
/* G:C1WC2W R:C1PC2P E:C1XC5X C:C2IC6I J:C1CC2S             
/* PCV:IGS14_2134 OL/AL:FES2004  NONE     YN ORB:CoN CLK:CoN
*  2021 03 18 12 30  0.00000000
PC06 -21193.449438  22000.340285 -28803.897740    188.833792
PC07 -18330.145772  37389.331887  -4234.314174    -29.469379
PC08  -5315.422540  26081.969779  32921.286308   -899.445955
PC09  -4446.976708  24264.199148 -33939.950628    659.989701
PC10  -7923.503628  40283.457907   8720.571950    -69.879142
PC11 -27412.613716   1000.616201   5091.990219   -861.819387
PC12 -22989.931023  -9836.558493 -12338.369493    874.028854
PC13   6325.730454  34429.733428  23784.631646    185.137881
PC14 -20085.905097   8466.407455  17422.122645    240.984073
PC16 -16229.339617  23017.437079 -31325.782771   -740.159629
PC19  19537.906781 -17296.036636  -9886.436548    766.027273
PC20  17852.659507   -154.783321 -21434.556593   -932.223393
PC21  -5337.976562 -17965.792394  20704.362136   -891.424848
PC22  10007.152277 -24896.291103   7728.124451   -921.933043
PC23   -447.710789  23536.363735 -14991.979292   -878.444030
PC24 -19023.496659 -11707.290322 -16723.119876   -786.296742
PC25 -13302.500651   9439.580282 -22651.351107   -946.595068
PC26 -14072.689050 -23992.587971  -2008.124078    933.726787
PC27  14855.340203  14212.102239  18842.984197    500.635323
PC28  -6217.873082  15152.163428  22597.677586    -96.992656
PC29  23282.593969  -8108.537092 -13072.510950    366.635349
PC30  27188.005093   4255.469208   4542.437828    453.316629
PC32   5472.529741  17911.380184 -20664.946430   -915.390264
PC33 -19486.508984  17285.092629  10000.033438   -946.215762
PC34 -27376.904061  -3895.804528  -3875.288797   -716.263046
PC35   6007.752498 -15373.369421 -22499.447115   -369.068997
PC36  13725.625434  -8749.035189  22685.607906   -740.430826
PC37  13049.412726  24652.005609   1181.470515   -878.428476
PC38  -4058.848893  29274.901913  30144.988464    136.589827
PC39 -14238.293083  24149.358545 -31528.514272     29.495063
PC40 -14581.794958  38711.655941   7786.932238    142.160743
PC41 -10165.303851  24904.652884  -7388.282713   -933.217651
PC42 -17600.789956   -670.495811  21688.749738   -939.843167
PC43 -23658.190552   7764.065266  12624.145941   -644.962049
PC44 -15164.385516 -13887.030762 -18889.861572     92.026163
PC45    271.155741 -23522.575036  14993.043086    389.955038
PC46  18985.623344  10880.372810  17339.688563    357.420745
PE01 -14315.938455  15204.071006 -20985.680801  -1068.088682
PE02  14274.840528 -15297.043346  20923.892937    205.867182
PE03  25458.877759 -15088.910353    861.970496   -410.225454
PE04 -11646.000378  20818.058706 -17518.970607   -731.445202
PE05  24529.635776   -405.087919 -16558.475293   -296.066975
PE07  -9305.332985 -14371.330937  24153.777956   -514.293293
PE08  11288.174262 -20787.221712  17804.829597   6031.345491
PE09   9486.020964  14083.781582 -24239.745588   5730.773909
PE11  18567.882510  19727.978755  11896.634166   6193.682076
PE12  -1191.833811  17394.716242  23921.144376   5304.275951
PE13 -18351.289424 -19719.085756 -12275.275260    413.723980
PE14  24339.103263   2361.180260  10043.908667  -1365.983682
PE15   1021.575073 -17356.851441 -23946.395048    824.044916
PE18 -19209.522843 -12481.038714 -20095.554175  -1493.793676
PE19 -26190.523494  13734.587265   1323.778615    229.862676
PE21 -16105.549233  -6401.736915 -24000.702179   -654.288635
PE24   8116.410627  25557.668416  12547.568736   -799.217386
PE25  16072.874825   6634.900824  23955.824992   -528.753255
PE26 -26879.534534 -10045.482528   7281.733085   2028.026006
PE27  -8634.475224 -25052.130972 -13179.842978      7.875683
PE30   4539.017662 -28596.103897   6091.433650   3097.239978
PE31  -3861.420341  28865.705428  -5315.312790   -479.286728
PE33 -19778.601430   4778.057257  21512.528735   -466.648373
PG01 -21779.961197 -13587.807071   7237.599376    738.398943
PG02   9704.819161  20446.860951  14525.032660   -587.287772
PG03 -13854.639692  -6408.752134  21664.393886   -111.461563
PG04 -22627.316867  -3419.754795  13535.176033   -186.892531
PG05   5634.527221  22216.899303 -13414.425014    -36.560274
PG06  -2755.334768  16279.972416  20854.860407      1.502105
PG07 -19746.306679  -1171.409333 -17612.208379     93.838122
PG08 -17046.740877  -7937.757469 -18875.939804    -14.201545
PG09 -25627.759465   6040.551362   3517.766075   -332.051230
PG10  11663.977487 -21434.739038 -10040.396221    -83.517444
PG11 -24126.279948  -9827.166867  -4515.555224      4.508391
PG12  11572.801770  11098.909761  20951.822379    -15.625377
PG13   7127.602090  13846.496136 -21663.913516    109.258010
PG14 -13326.229061  20199.417987 -10942.695528     99.788465
PG15  18299.262530   6893.383882 -18480.402658   -162.312900
PG16  -1054.421047 -23602.085892 -11894.847396   -295.874395
PG17 -18793.759238  13820.312490  13122.381668    411.683634
PG18  17434.966660  -2382.006272 -19917.851881    350.744772
PG19 -11817.595551  14895.188429  18219.562052    -24.762937
PG20  15193.411338  -8999.678926 -19757.250000    524.080055
PG21 -21244.768098 -16346.334310    338.182940    104.085267
PG22 -11680.588466 -15772.487989  18170.358497   -657.866123
PG23  15149.758354 -12124.215605 -18137.937715    117.188345
PG24  21571.591003  15779.861063   1351.993328      0.891573
PG25  15698.157918  -4459.882416  20637.093180    101.203876
PG26   3653.052651 -26136.056247  -1204.095601     59.760350
PG27  -4422.179955 -14273.365971 -22119.867730    -96.260712
PG28 -12535.509388  22004.393833  -7759.325409    600.357421
PG29  26062.392723  -4262.199180   2992.774673   -314.030293
PG30 -11141.151799  11068.886177 -21372.223080   -400.176072
PG31    905.379956 -17970.998528  19298.978806   -106.315908
PG32  16708.559099 -15524.584996  13569.459115     21.365208
PJ01 -34397.377058  24420.762240   5636.621665   -356.130223
PJ02 -20300.894533  27713.163968 -19964.634930      3.591622
PJ03 -30119.595437  23807.716658  22467.572468     -1.921600
PR01  -3690.138245 -11814.364922  22310.836899     76.565744
PR02 -17486.960065   5881.322835  17688.148509    471.241314
PR03 -18479.306360  17484.678409   2254.373111     32.607936
PR04  -9142.784750  19004.677294 -14323.496467     78.421879
PR05   5249.640931   9961.271954 -22875.869721     68.366426
PR07  18237.400018 -17737.748622  -1463.819737    -42.551711
PR08   8959.016868 -19049.150875  14449.232381    -58.001598
PR09  12667.057893   5596.613362  21418.805677    -16.522720
PR11  -2856.179623 -23783.476805   8786.922954      2.151037
PR12 -10714.501840 -21188.874840  -9269.724237    213.552465
PR13 -12525.403506  -6297.854261 -21330.427762    -52.167834
PR14  -6801.098866  12859.599199 -20944.894177     62.140634
PR15   2695.400481  23951.515611  -8344.423458    104.853752
PR16  11538.500635  20469.290311  10062.317049    -12.675022
PR17 -17161.034397   4222.011102  18390.885705    409.005587
PR18   -508.223731  10628.620010  23195.960090     70.198983
PR19  15614.895123  11994.445503  16216.473920   -136.190498
PR20  24640.743837   5944.213573  -2603.212776    -45.501670
PR21  16252.580608  -4656.812502 -19105.674337   -195.273142
PR22   -831.596463 -10881.018652 -23075.560692   -103.224516
PR24 -24751.773770  -5177.350360   3347.202129     35.456764
EOF
